[{"OBJECT_NAME":"STARLINK-30794","OBJECT_ID":"2023-170N","EPOCH":"2026-03-08T10:17:57.464448","MEAN_MOTION":15.26743028,"ECCENTRICITY":0.00018396,"INCLINATION":43.0013,"RA_OF_ASC_NODE":200.7294,"ARG_OF_PERICENTER":260.6139,"MEAN_ANOMALY":99.4504,"EPHEMERIS_TYPE":0,"CLASSIFICATION_TYPE":"U","NORAD_CAT_ID":58218,"ELEMENT_SET_NO":999,"REV_AT_EPOCH":13011,"BSTAR":1.4436452e-5,"MEAN_MOTION_DOT":1.27e-6,"MEAN_MOTION_DDOT":0},{"OBJECT_NAME":"SL-3 R\/B","OBJECT_ID":"1982-013B","EPOCH":"2026-03-09T21:53:00.854016","MEAN_MOTION":15.22021316,"ECCENTRICITY":0.00226549,"INCLINATION":81.1762,"RA_OF_ASC_NODE":160.5103,"ARG_OF_PERICENTER":176.767,"MEAN_ANOMALY":183.3713,"EPHEMERIS_TYPE":0,"CLASSIFICATION_TYPE":"U","NORAD_CAT_ID":13068,"ELEMENT_SET_NO":999,"REV_AT_EPOCH":40438,"BSTAR":0.00024250009,"MEAN_MOTION_DOT":5.603e-5,"MEAN_MOTION_DDOT":0}]
